GLOBALSTAR M063         
1 26081U 00008A   24120.76686823 -.00000078  00000+0  67784-4 0  9991
2 26081  51.9924 120.3553 0004664 242.7467 288.1918 11.86153802108517
GLOBALSTAR M062         
1 26082U 00008B   24120.62208198 -.00000031  00000+0  48026-3 0  9998
2 26082  51.9843 231.9209 0006449 308.9236  64.4523 12.43434112107670
GLOBALSTAR M060         
1 26083U 00008C   24120.77765039 -.00000019  00000+0  71658-3 0  9990
2 26083  51.9989 132.9847 0003350   4.4955 166.5394 12.17632072102002
GLOBALSTAR M064         
1 26084U 00008D   24121.21212460 -.00000062  00000+0  30105-3 0  9996
2 26084  52.0025 222.8824 0000905 352.3671   7.7148 11.88518320118100
GLOBALSTAR M065         
1 31571U 07020A   24121.21180006 -.00000063  00000+0  23065-3 0  9992
2 31571  51.9914  43.1868 0010626 111.8211  52.5064 12.61968409781574
GLOBALSTAR M069         
1 31573U 07020C   24120.94674730 -.00000043  00000+0  33730-3 0  9993
2 31573  51.9973 359.8850 0000905  68.3833 304.5262 12.62271257782361
GLOBALSTAR M072         
1 31574U 07020D   24120.86186138 -.00000080  00000+0  13437-3 0  9998
2 31574  52.0071  96.0333 0000294 348.3851  18.9688 12.62270907780627
GLOBALSTAR M071         
1 31576U 07020F   24120.97320812 -.00000039  00000+0  36167-3 0  9990
2 31576  52.0089   4.9313 0000724  28.5851 344.9103 12.62264319443551
